{
    "links": {
        "self": "http://www.neowsapp.com/rest/v1/neo/3476775?api_key=iIulBulltgU6a56xZRHN4H3l9WmuAYTsLGpBGhQ2"
    },
    "id": "3476775",
    "neo_reference_id": "3476775",
    "name": "(2009 WB)",
    "designation": "2009 WB",
    "nasa_jpl_url": "http://ssd.jpl.nasa.gov/sbdb.cgi?sstr=3476775",
    "absolute_magnitude_h": 24.2,
    "estimated_diameter": {
        "kilometers": {
            "estimated_diameter_min": 0.0384197891,
            "estimated_diameter_max": 0.0859092601
        },
        "meters": {
            "estimated_diameter_min": 38.4197891064,
            "estimated_diameter_max": 85.9092601232
        },
        "miles": {
            "estimated_diameter_min": 0.0238729428,
            "estimated_diameter_max": 0.0533815229
        },
        "feet": {
            "estimated_diameter_min": 126.0491808919,
            "estimated_diameter_max": 281.8545369825
        }
    },
    "is_potentially_hazardous_asteroid": false,
    "close_approach_data": [
        {
            "close_approach_date": "2009-11-17",
            "close_approach_date_full": "2009-Nov-17 05:39",
            "epoch_date_close_approach": 1258436340000,
            "relative_velocity": {
                "kilometers_per_second": "9.1386765648",
                "kilometers_per_hour": "32899.2356333146",
                "miles_per_hour": "20442.3056078226"
            },
            "miss_distance": {
                "astronomical": "0.0421061193",
                "lunar": "16.3792804077",
                "kilometers": "6298985.761245891",
                "miles": "3914008.2570636558"
            },
            "orbiting_body": "Earth"
        }
    ],
    "orbital_data": {
        "orbit_id": "15",
        "orbit_determination_date": "2017-04-06 08:59:11",
        "first_observation_date": "2009-11-16",
        "last_observation_date": "2009-11-23",
        "data_arc_in_days": 7,
        "observations_used": 72,
        "orbit_uncertainty": "7",
        "minimum_orbit_intersection": ".038959",
        "jupiter_tisserand_invariant": "4.152",
        "epoch_osculation": "2459000.5",
        "eccentricity": ".3912516110818739",
        "semi_major_axis": "1.658790497320084",
        "inclination": "12.3872504117559",
        "ascending_node_longitude": "57.24814534527084",
        "orbital_period": "780.3433523373493",
        "perihelion_distance": "1.009786042796299",
        "perihelion_argument": "337.6052968360192",
        "aphelion_distance": "2.30779495184387",
        "perihelion_time": "2459037.993566810082",
        "mean_anomaly": "342.7028909630611",
        "mean_motion": ".4613353838687778",
        "equinox": "J2000",
        "orbit_class": {
            "orbit_class_type": "APO",
            "orbit_class_description": "Near-Earth asteroid orbits which cross the Earth’s orbit similar to that of 1862 Apollo",
            "orbit_class_range": "a (semi-major axis) > 1.0 AU; q (perihelion) < 1.017 AU"
        }
    },
    "is_sentry_object": false
}